JILIN GAOFEN OBJECT G   
1 68697U 26080G   26112.29952414  .00003050  00000+0  19367-3 0  9996
2 68697  97.6673 187.9421 0014146 254.7084 105.2581 15.09566725  1193
JILIN GAOFEN OBJECT H   
1 68698U 26080H   26112.29931017  .00004743  00000+0  29850-3 0  9991
2 68698  97.6650 187.9421 0014104 255.6064 104.3599 15.09605996  1194
STARLINK-37358          
1 68699U 26081A   26115.25002315  .00007770  00000+0  42853-4 0  9994
2 68699  53.1602 187.5989 0001277  88.2317 356.7236 15.80882239  2886
STARLINK-37334          
1 68700U 26081B   26115.25002315  .00035440  00000+0  18244-3 0  9998
2 68700  53.1602 187.5899 0001383  93.2001 356.0397 15.80863748  2888
STARLINK-36955          
1 68701U 26081C   26115.25002315  .00178437  00000+0  89153-3 0  9990
2 68701  53.1603 187.5811 0001047  91.2954   2.2298 15.80811851  2884
STARLINK-36275          
1 68702U 26081D   26115.25002315  .00063991  00000+0  32548-3 0  9995
2 68702  53.1601 187.5725 0001153  82.7305  15.0416 15.80864274  2971
STARLINK-36271          
1 68703U 26081E   26115.25002315  .00053179  00000+0  27145-3 0  9990
2 68703  53.1602 187.5633 0001182  85.8351  16.2144 15.80861768  2974
STARLINK-37356          
1 68704U 26081F   26115.25002315  .00070794  00000+0  35953-3 0  9999
2 68704  53.1603 187.5548 0000648  93.3123  13.0103 15.80858159  2888
STARLINK-35369          
1 68705U 26081G   26115.25002315  .00105398  00000+0  53154-3 0  9992
2 68705  53.1602 187.5460 0000951  92.4492  18.1383 15.80852647  2777
STARLINK-37319          
1 68706U 26081H   26115.25002315  .00024054  00000+0  12504-3 0  9996
2 68706  53.1620 187.5193 0001156 101.0933  22.2978 15.80879271  2886
STARLINK-37112          
1 68707U 26081J   26115.25002315  .00053108  00000+0  27098-3 0  9993
2 68707  53.1603 187.5370 0001086  80.0623  34.7916 15.80870921  2882
STARLINK-37340          
1 68708U 26081K   26115.25002315  .00129676  00000+0  65173-3 0  9994
2 68708  53.1602 187.5282 0001098 116.0763   3.0624 15.80839159  2885
STARLINK-37303          
1 68709U 26081L   26115.25002315  .00066391  00000+0  33745-3 0  9999
2 68709  53.1601 187.5106 0001069  69.3710  58.2978 15.80864789  1330
STARLINK-36859          
1 68710U 26081M   26115.25002315  .00070964  00000+0  36017-3 0  9997
2 68710  53.1601 187.5014 0001911  83.2949  48.6461 15.80869291  1305
STARLINK-37320          
1 68711U 26081N   26115.25002315  .00026496  00000+0  13733-3 0  9999
2 68711  53.1601 187.4928 0001242  85.1080  51.0937 15.80879551  1332
STARLINK-37318          
1 68712U 26081P   26115.25002315 -.00019493  00000+0 -95324-4 0  9998
2 68712  53.1601 187.4842 0001167  77.6039  62.8835 15.80899201  1302
