[{"OBJECT_NAME":"JILIN GAOFEN OBJECT G","OBJECT_ID":"2026-080G","EPOCH":"2026-04-22T07:11:18.885696","MEAN_MOTION":15.09566725,"ECCENTRICITY":0.00141468,"INCLINATION":97.6673,"RA_OF_ASC_NODE":187.9421,"ARG_OF_PERICENTER":254.7084,"MEAN_ANOMALY":105.2581,"EPHEMERIS_TYPE":0,"CLASSIFICATION_TYPE":"U","NORAD_CAT_ID":68697,"ELEMENT_SET_NO":999,"REV_AT_EPOCH":119,"BSTAR":0.00019366799,"MEAN_MOTION_DOT":3.05e-5,"MEAN_MOTION_DDOT":0},{"OBJECT_NAME":"JILIN GAOFEN OBJECT H","OBJECT_ID":"2026-080H","EPOCH":"2026-04-22T07:11:00.398688","MEAN_MOTION":15.09605996,"ECCENTRICITY":0.0014104,"INCLINATION":97.665,"RA_OF_ASC_NODE":187.9421,"ARG_OF_PERICENTER":255.6064,"MEAN_ANOMALY":104.3599,"EPHEMERIS_TYPE":0,"CLASSIFICATION_TYPE":"U","NORAD_CAT_ID":68698,"ELEMENT_SET_NO":999,"REV_AT_EPOCH":119,"BSTAR":0.00029850024,"MEAN_MOTION_DOT":4.743e-5,"MEAN_MOTION_DDOT":0},{"OBJECT_NAME":"STARLINK-37358","OBJECT_ID":"2026-081A","EPOCH":"2026-04-25T06:00:02.000160","MEAN_MOTION":15.80882239,"ECCENTRICITY":0.00012773,"INCLINATION":53.1602,"RA_OF_ASC_NODE":187.5989,"ARG_OF_PERICENTER":88.2317,"MEAN_ANOMALY":356.7236,"EPHEMERIS_TYPE":0,"CLASSIFICATION_TYPE":"U","NORAD_CAT_ID":68699,"ELEMENT_SET_NO":999,"REV_AT_EPOCH":288,"BSTAR":4.2853203e-5,"MEAN_MOTION_DOT":7.77e-5,"MEAN_MOTION_DDOT":0},{"OBJECT_NAME":"STARLINK-37334","OBJECT_ID":"2026-081B","EPOCH":"2026-04-25T06:00:02.000160","MEAN_MOTION":15.80863748,"ECCENTRICITY":0.00013833,"INCLINATION":53.1602,"RA_OF_ASC_NODE":187.5899,"ARG_OF_PERICENTER":93.2001,"MEAN_ANOMALY":356.0397,"EPHEMERIS_TYPE":0,"CLASSIFICATION_TYPE":"U","NORAD_CAT_ID":68700,"ELEMENT_SET_NO":999,"REV_AT_EPOCH":288,"BSTAR":0.00018243549,"MEAN_MOTION_DOT":0.0003544,"MEAN_MOTION_DDOT":0},{"OBJECT_NAME":"STARLINK-36955","OBJECT_ID":"2026-081C","EPOCH":"2026-04-25T06:00:02.000160","MEAN_MOTION":15.80811851,"ECCENTRICITY":0.00010476,"INCLINATION":53.1603,"RA_OF_ASC_NODE":187.5811,"ARG_OF_PERICENTER":91.2954,"MEAN_ANOMALY":2.2298,"EPHEMERIS_TYPE":0,"CLASSIFICATION_TYPE":"U","NORAD_CAT_ID":68701,"ELEMENT_SET_NO":999,"REV_AT_EPOCH":288,"BSTAR":0.00089152929,"MEAN_MOTION_DOT":0.00178437,"MEAN_MOTION_DDOT":0},{"OBJECT_NAME":"STARLINK-36275","OBJECT_ID":"2026-081D","EPOCH":"2026-04-25T06:00:02.000160","MEAN_MOTION":15.80864274,"ECCENTRICITY":0.00011537,"INCLINATION":53.1601,"RA_OF_ASC_NODE":187.5725,"ARG_OF_PERICENTER":82.7305,"MEAN_ANOMALY":15.0416,"EPHEMERIS_TYPE":0,"CLASSIFICATION_TYPE":"U","NORAD_CAT_ID":68702,"ELEMENT_SET_NO":999,"REV_AT_EPOCH":297,"BSTAR":0.00032547743,"MEAN_MOTION_DOT":0.00063991,"MEAN_MOTION_DDOT":0},{"OBJECT_NAME":"STARLINK-36271","OBJECT_ID":"2026-081E","EPOCH":"2026-04-25T06:00:02.000160","MEAN_MOTION":15.80861768,"ECCENTRICITY":0.00011826,"INCLINATION":53.1602,"RA_OF_ASC_NODE":187.5633,"ARG_OF_PERICENTER":85.8351,"MEAN_ANOMALY":16.2144,"EPHEMERIS_TYPE":0,"CLASSIFICATION_TYPE":"U","NORAD_CAT_ID":68703,"ELEMENT_SET_NO":999,"REV_AT_EPOCH":297,"BSTAR":0.00027145,"MEAN_MOTION_DOT":0.00053179,"MEAN_MOTION_DDOT":0},{"OBJECT_NAME":"STARLINK-37356","OBJECT_ID":"2026-081F","EPOCH":"2026-04-25T06:00:02.000160","MEAN_MOTION":15.80858159,"ECCENTRICITY":6.488e-5,"INCLINATION":53.1603,"RA_OF_ASC_NODE":187.5548,"ARG_OF_PERICENTER":93.3123,"MEAN_ANOMALY":13.0103,"EPHEMERIS_TYPE":0,"CLASSIFICATION_TYPE":"U","NORAD_CAT_ID":68704,"ELEMENT_SET_NO":999,"REV_AT_EPOCH":288,"BSTAR":0.00035952633,"MEAN_MOTION_DOT":0.00070794,"MEAN_MOTION_DDOT":0},{"OBJECT_NAME":"STARLINK-35369","OBJECT_ID":"2026-081G","EPOCH":"2026-04-25T06:00:02.000160","MEAN_MOTION":15.80852647,"ECCENTRICITY":9.516e-5,"INCLINATION":53.1602,"RA_OF_ASC_NODE":187.546,"ARG_OF_PERICENTER":92.4492,"MEAN_ANOMALY":18.1383,"EPHEMERIS_TYPE":0,"CLASSIFICATION_TYPE":"U","NORAD_CAT_ID":68705,"ELEMENT_SET_NO":999,"REV_AT_EPOCH":277,"BSTAR":0.0005315376,"MEAN_MOTION_DOT":0.00105398,"MEAN_MOTION_DDOT":0},{"OBJECT_NAME":"STARLINK-37319","OBJECT_ID":"2026-081H","EPOCH":"2026-04-25T06:00:02.000160","MEAN_MOTION":15.80879271,"ECCENTRICITY":0.00011566,"INCLINATION":53.162,"RA_OF_ASC_NODE":187.5193,"ARG_OF_PERICENTER":101.0933,"MEAN_ANOMALY":22.2978,"EPHEMERIS_TYPE":0,"CLASSIFICATION_TYPE":"U","NORAD_CAT_ID":68706,"ELEMENT_SET_NO":999,"REV_AT_EPOCH":288,"BSTAR":0.00012503502,"MEAN_MOTION_DOT":0.00024054,"MEAN_MOTION_DDOT":0},{"OBJECT_NAME":"STARLINK-37112","OBJECT_ID":"2026-081J","EPOCH":"2026-04-25T06:00:02.000160","MEAN_MOTION":15.80870921,"ECCENTRICITY":0.00010869,"INCLINATION":53.1603,"RA_OF_ASC_NODE":187.537,"ARG_OF_PERICENTER":80.0623,"MEAN_ANOMALY":34.7916,"EPHEMERIS_TYPE":0,"CLASSIFICATION_TYPE":"U","NORAD_CAT_ID":68707,"ELEMENT_SET_NO":999,"REV_AT_EPOCH":288,"BSTAR":0.00027098124,"MEAN_MOTION_DOT":0.00053108,"MEAN_MOTION_DDOT":0},{"OBJECT_NAME":"STARLINK-37340","OBJECT_ID":"2026-081K","EPOCH":"2026-04-25T06:00:02.000160","MEAN_MOTION":15.80839159,"ECCENTRICITY":0.00010988,"INCLINATION":53.1602,"RA_OF_ASC_NODE":187.5282,"ARG_OF_PERICENTER":116.0763,"MEAN_ANOMALY":3.0624,"EPHEMERIS_TYPE":0,"CLASSIFICATION_TYPE":"U","NORAD_CAT_ID":68708,"ELEMENT_SET_NO":999,"REV_AT_EPOCH":288,"BSTAR":0.00065173056,"MEAN_MOTION_DOT":0.00129676,"MEAN_MOTION_DDOT":0},{"OBJECT_NAME":"STARLINK-37303","OBJECT_ID":"2026-081L","EPOCH":"2026-04-25T06:00:02.000160","MEAN_MOTION":15.80864789,"ECCENTRICITY":0.00010695,"INCLINATION":53.1601,"RA_OF_ASC_NODE":187.5106,"ARG_OF_PERICENTER":69.371,"MEAN_ANOMALY":58.2978,"EPHEMERIS_TYPE":0,"CLASSIFICATION_TYPE":"U","NORAD_CAT_ID":68709,"ELEMENT_SET_NO":999,"REV_AT_EPOCH":133,"BSTAR":0.00033745346,"MEAN_MOTION_DOT":0.00066391,"MEAN_MOTION_DDOT":0},{"OBJECT_NAME":"STARLINK-36859","OBJECT_ID":"2026-081M","EPOCH":"2026-04-25T06:00:02.000160","MEAN_MOTION":15.80869291,"ECCENTRICITY":0.00019111,"INCLINATION":53.1601,"RA_OF_ASC_NODE":187.5014,"ARG_OF_PERICENTER":83.2949,"MEAN_ANOMALY":48.6461,"EPHEMERIS_TYPE":0,"CLASSIFICATION_TYPE":"U","NORAD_CAT_ID":68710,"ELEMENT_SET_NO":999,"REV_AT_EPOCH":130,"BSTAR":0.00036017248,"MEAN_MOTION_DOT":0.00070964,"MEAN_MOTION_DDOT":0},{"OBJECT_NAME":"STARLINK-37320","OBJECT_ID":"2026-081N","EPOCH":"2026-04-25T06:00:02.000160","MEAN_MOTION":15.80879551,"ECCENTRICITY":0.0001242,"INCLINATION":53.1601,"RA_OF_ASC_NODE":187.4928,"ARG_OF_PERICENTER":85.108,"MEAN_ANOMALY":51.0937,"EPHEMERIS_TYPE":0,"CLASSIFICATION_TYPE":"U","NORAD_CAT_ID":68711,"ELEMENT_SET_NO":999,"REV_AT_EPOCH":133,"BSTAR":0.00013732831,"MEAN_MOTION_DOT":0.00026496,"MEAN_MOTION_DDOT":0},{"OBJECT_NAME":"STARLINK-37318","OBJECT_ID":"2026-081P","EPOCH":"2026-04-25T06:00:02.000160","MEAN_MOTION":15.80899201,"ECCENTRICITY":0.00011678,"INCLINATION":53.1601,"RA_OF_ASC_NODE":187.4842,"ARG_OF_PERICENTER":77.6039,"MEAN_ANOMALY":62.8835,"EPHEMERIS_TYPE":0,"CLASSIFICATION_TYPE":"U","NORAD_CAT_ID":68712,"ELEMENT_SET_NO":999,"REV_AT_EPOCH":130,"BSTAR":-9.5324362e-5,"MEAN_MOTION_DOT":-0.00019493,"MEAN_MOTION_DDOT":0}]
